     3.02           N: GNSS NAV DATA    E: GALILEO          RINEX VERSION / TYPE
TPP 4.3.2                               20231127 235930 UTC PGM / RUN BY / DATE 
                                                            COMMENT             
                                                            COMMENT             
                                                            COMMENT             
GAL     .2980E-07   .7451E-08  -.1192E-06   .0000E+00       IONOSPHERIC CORR    
GAUT   .2793967724E-08  .976996262E-14 405504 2290          TIME SYSTEM CORR    
    18                                                      LEAP SECONDS        
                                                            END OF HEADER       
E15 2023 11 28 00 40 00 -.718288938515E-04 -.187583282241E-11  .346944695195E-17
      .360000000000E+02 -.176000000000E+03  .284761861475E-08  .206520119064E+01
     -.809319317341E-05  .352040282451E-03 -.133737921715E-05  .544060567093E+04
      .175200000000E+06  .260770320892E-07 -.100633789132E+01 -.931322574615E-08
      .999784915089E+00  .384718750000E+03 -.156875355041E+01 -.582131390966E-08
     -.397516558160E-09  .257000000000E+03  .229000000000E+04  .000000000000E+00
      .312000000000E+01  .000000000000E+00  .675208866596E-08  .628642737865E-08
      .175885000000E+06  .000000000000E+00  .000000000000E+00  .000000000000E+00
E05 2023 11 28 00 40 00  .469512812560E-02  .369482222595E-11  .000000000000E+00
      .360000000000E+02  .244687500000E+02  .336335438292E-08 -.211854641062E+01
      .119581818581E-05  .123424222693E-03  .680796802044E-05  .544059353638E+04
      .175200000000E+06  .167638063431E-07  .108739802263E+01  .372529029846E-07
      .959465274837E+00  .193156250000E+03  .205444198554E+01 -.550665794584E-08
      .682171272315E-09  .257000000000E+03  .229000000000E+04  .000000000000E+00
      .312000000000E+01  .000000000000E+00  .512227416039E-08  .465661287308E-08
      .175885000000E+06  .000000000000E+00  .000000000000E+00  .000000000000E+00
E27 2023 11 28 00 40 00 -.210590893403E-03 -.926547727431E-11  .000000000000E+00
      .360000000000E+02  .155062500000E+03  .264511017946E-08  .185311496248E+01
      .718235969543E-05  .269329757430E-03  .132266432047E-04  .544063023376E+04
      .175200000000E+06 -.372529029846E-07 -.309690905264E+01 -.111758708954E-07
      .968157982340E+00  .576562500000E+02 -.740549597949E-01 -.513664253321E-08
     -.350371737246E-09  .257000000000E+03  .229000000000E+04  .000000000000E+00
      .312000000000E+01  .000000000000E+00  .302679836750E-08  .302679836750E-08
      .176455000000E+06  .000000000000E+00  .000000000000E+00  .000000000000E+00
E30 2023 11 28 00 50 00 -.697273644619E-03 -.307522896037E-10  .000000000000E+00
      .370000000000E+02  .159625000000E+03  .267511142913E-08  .193844923717E+01
      .748783349991E-05  .444056931883E-03  .129453837872E-04  .544064085388E+04
      .175800000000E+06 -.149011611938E-07 -.309364922350E+01 -.298023223877E-07
      .966018640200E+00  .646562500000E+02  .712329527841E+00 -.511949896197E-08
     -.322513433979E-09  .257000000000E+03  .229000000000E+04  .000000000000E+00
      .312000000000E+01  .000000000000E+00  .186264514923E-08  .186264514923E-08
      .176485000000E+06  .000000000000E+00  .000000000000E+00  .000000000000E+00
E02 2023 11 28 00 50 00  .820537679829E-04  .319744231092E-11  .000000000000E+00
      .370000000000E+02  .163187500000E+03  .260189409362E-08  .314016547899E+01
      .744126737118E-05  .411086133681E-03  .126883387566E-04  .544064159775E+04
      .175800000000E+06 -.167638063431E-07 -.309383491023E+01 -.428408384323E-07
      .968595820555E+00  .758125000000E+02  .306095974263E+00 -.511235580728E-08
     -.302869758598E-09  .257000000000E+03  .229000000000E+04  .000000000000E+00
      .312000000000E+01  .000000000000E+00 -.162981450558E-08 -.931322574615E-09
      .176485000000E+06  .000000000000E+00  .000000000000E+00  .000000000000E+00
E03 2023 11 28 00 50 00 -.763850403018E-04 -.255795384874E-11  .000000000000E+00
      .370000000000E+02  .233750000000E+02  .341407078118E-08 -.192758515840E+01
      .111013650894E-05  .308713526465E-03  .678375363350E-05  .544059513092E+04
      .175800000000E+06  .204890966415E-07  .108739312185E+01  .298023223877E-07
      .959451577535E+00  .193187500000E+03  .115912993873E+01 -.551630120466E-08
      .652884338110E-09  .257000000000E+03  .229000000000E+04  .000000000000E+00
      .312000000000E+01  .000000000000E+00  .419095158577E-08  .372529029846E-08
      .176485000000E+06  .000000000000E+00  .000000000000E+00  .000000000000E+00
E36 2023 11 28 00 50 00 -.150046485942E-03 -.527222709934E-11  .000000000000E+00
      .370000000000E+02 -.160562500000E+03  .273939982128E-08 -.272409818716E+01
     -.751391053200E-05  .265309354290E-03 -.115483999252E-06  .544060242271E+04
      .175800000000E+06 -.106170773506E-06 -.100628457527E+01  .000000000000E+00
      .999832139548E+00  .359843750000E+03 -.142238191836E+01 -.567309344997E-08
     -.328585115460E-09  .257000000000E+03  .229000000000E+04  .000000000000E+00
      .312000000000E+01  .000000000000E+00  .488944351673E-08  .395812094212E-08
      .176485000000E+06  .000000000000E+00  .000000000000E+00  .000000000000E+00
E11 2023 11 28 00 50 00  .323657965055E-02  .247837306233E-10 -.346944695195E-17
      .370000000000E+02 -.161312500000E+03  .278225874939E-08  .238792625419E+01
     -.763684511185E-05  .143434852362E-03 -.577419996262E-07  .544060306931E+04
      .175800000000E+06 -.633299350739E-07 -.100478628090E+01 -.447034835815E-07
      .996721077479E+00  .355531250000E+03  .499482035146E+00 -.566702176849E-08
     -.383944564261E-09  .257000000000E+03  .229000000000E+04  .000000000000E+00
      .312000000000E+01  .000000000000E+00 -.158324837685E-07 -.146683305502E-07
      .176485000000E+06  .000000000000E+00  .000000000000E+00  .000000000000E+00
E27 2023 11 28 00 50 00 -.210596539546E-03 -.927968812903E-11  .000000000000E+00
      .370000000000E+02  .156656250000E+03  .264332439079E-08  .192792906265E+01
      .726431608200E-05  .269497279078E-03  .132415443659E-04  .544062982941E+04
      .175800000000E+06 -.465661287308E-07 -.309691222863E+01 -.242143869400E-07
      .968157778995E+00  .573125000000E+02 -.744847724412E-01 -.512771358985E-08
     -.343585740297E-09  .257000000000E+03  .229000000000E+04  .000000000000E+00
      .312000000000E+01  .000000000000E+00  .302679836750E-08  .302679836750E-08
      .176485000000E+06  .000000000000E+00  .000000000000E+00  .000000000000E+00
E05 2023 11 28 00 50 00  .469513027929E-02  .369482222595E-11  .000000000000E+00
      .370000000000E+02  .247187500000E+02  .335871133238E-08 -.204389839262E+01
      .119954347610E-05  .123427715153E-03  .680610537529E-05  .544059360123E+04
      .175800000000E+06  .167638063431E-07  .108739472082E+01  .428408384323E-07
      .959465712250E+00  .193281250000E+03  .205418032070E+01 -.550272921076E-08
      .680028325909E-09  .257000000000E+03  .229000000000E+04  .000000000000E+00
      .312000000000E+01  .000000000000E+00  .512227416039E-08  .465661287308E-08
      .176485000000E+06  .000000000000E+00  .000000000000E+00  .000000000000E+00
E09 2023 11 28 00 50 00 -.243219255935E-03 -.136282096719E-10  .000000000000E+00
      .370000000000E+02  .262812500000E+02  .324049212236E-08  .794009232757E-01
      .133365392685E-05  .220495508984E-03  .676885247231E-05  .544059799957E+04
      .175800000000E+06 -.800937414169E-07  .108656244186E+01  .298023223877E-07
      .965370462160E+00  .197437500000E+03  .740805346751E+00 -.542165440510E-08
      .630026243122E-09  .257000000000E+03  .229000000000E+04  .000000000000E+00
      .312000000000E+01  .000000000000E+00  .256113708019E-08  .232830643654E-08
      .176515000000E+06  .000000000000E+00  .000000000000E+00  .000000000000E+00
E04 2023 11 28 00 50 00 -.267428928055E-03 -.869704308570E-11  .000000000000E+00
      .370000000000E+02  .255625000000E+02  .337942648096E-08 -.133079939620E+01
      .117532908916E-05  .644571846351E-04  .687129795551E-05  .544061295128E+04
      .175800000000E+06 -.931322574615E-08  .108750086138E+01 -.465661287308E-07
      .959490441417E+00  .194187500000E+03  .291671306200E+01 -.552130141294E-08
      .586095841816E-09  .257000000000E+03  .229000000000E+04  .000000000000E+00
      .312000000000E+01  .000000000000E+00 -.349245965481E-08 -.302679836750E-08
      .177055000000E+06  .000000000000E+00  .000000000000E+00  .000000000000E+00
E11 2023 11 28 01 00 00  .323659449350E-02  .247837306233E-10 -.346944695195E-17
      .380000000000E+02 -.159531250000E+03  .277868717205E-08  .246202040263E+01
     -.754557549953E-05  .143110635690E-03 -.156462192535E-06  .544060372162E+04
      .176400000000E+06 -.651925802231E-07 -.100478967633E+01 -.502914190292E-07
      .996720825857E+00  .357437500000E+03  .499773685420E+00 -.567023618810E-08
     -.382873091058E-09  .257000000000E+03  .229000000000E+04  .000000000000E+00
      .312000000000E+01  .000000000000E+00 -.158324837685E-07 -.146683305502E-07
      .177085000000E+06  .000000000000E+00  .000000000000E+00  .000000000000E+00
E09 2023 11 28 01 00 00 -.243227463216E-03 -.136282096719E-10  .000000000000E+00
      .380000000000E+02  .263437500000E+02  .324263506877E-08  .153648344573E+00
      .134296715260E-05  .220531248488E-03  .680424273014E-05  .544059809494E+04
      .176400000000E+06 -.838190317154E-07  .108655923368E+01  .149011611938E-07
      .965370882018E+00  .197093750000E+03  .740943978719E+00 -.542022577416E-08
      .621097299767E-09  .257000000000E+03  .229000000000E+04  .000000000000E+00
      .312000000000E+01  .000000000000E+00  .256113708019E-08  .232830643654E-08
      .177085000000E+06  .000000000000E+00  .000000000000E+00  .000000000000E+00
